start=new Date('2021-10-30T00:00:00.000Z').valueOf();
sats=[{"ECCENTRICITY":"0.00016580","OBJECT_NAME":"STARLINK-1643","INCLINATION":"53.0536","APOAPSIS":"548.346","MEAN_MOTION_DDOT":"0.0000000000000","TIME_SYSTEM":"UTC","FILE":"3191412","MEAN_ELEMENT_THEORY":"SGP4","MEAN_ANOMALY":"289.8034","LAUNCH_DATE":"2020-08-18","OBJECT_ID":"2020-057V","MEAN_MOTION":"15.06405155","GP_ID":"188434666","PERIAPSIS":"546.050","OBJECT_TYPE":"PAYLOAD","REV_AT_EPOCH":"6620","SEMIMAJOR_AXIS":"6925.333","ELEMENT_SET_NO":"999","CLASSIFICATION_TYPE":"U","EPOCH":"2021-10-29T08:18:13.454784","RA_OF_ASC_NODE":"254.9367","SITE":"AFETR","EPHEMERIS_TYPE":"0","TLE_LINE2":"2 46136  53.0536 254.9367 0001658  70.3134 289.8034 15.06405155 66208","ARG_OF_PERICENTER":"70.3134","MEAN_MOTION_DOT":"0.00001329","TLE_LINE1":"1 46136U 20057V   21302.34598906  .00001329  00000-0  10812-3 0  9996","COUNTRY_CODE":"US","REF_FRAME":"TEME","CENTER_NAME":"EARTH","NORAD_CAT_ID":"46136","RCS_SIZE":"LARGE","BSTAR":"0.00010812000000","PERIOD":"95.592","DECAY_DATE":null},{"PERIAPSIS":"546.077","GP_ID":"188466661","OBJECT_TYPE":"PAYLOAD","MEAN_MOTION":"15.06400129","LAUNCH_DATE":"2020-08-18","OBJECT_ID":"2020-057W","MEAN_ANOMALY":"284.7858","MEAN_ELEMENT_THEORY":"SGP4","FILE":"3191844","TIME_SYSTEM":"UTC","MEAN_MOTION_DDOT":"0.0000000000000","APOAPSIS":"548.350","INCLINATION":"53.0537","OBJECT_NAME":"STARLINK-1586","ECCENTRICITY":"0.00016410","DECAY_DATE":null,"PERIOD":"95.592","BSTAR":"0.00010287000000","RCS_SIZE":"LARGE","CENTER_NAME":"EARTH","NORAD_CAT_ID":"46137","REF_FRAME":"TEME","COUNTRY_CODE":"US","TLE_LINE1":"1 46137U 20057W   21302.82977363  .00001251  00000-0  10287-3 0  9998","MEAN_MOTION_DOT":"0.00001251","ARG_OF_PERICENTER":"75.3313","TLE_LINE2":"2 46137  53.0537 242.7536 0001641  75.3313 284.7858 15.06400129 66416","SITE":"AFETR","EPHEMERIS_TYPE":"0","RA_OF_ASC_NODE":"242.7536","SEMIMAJOR_AXIS":"6925.348","ELEMENT_SET_NO":"999","REV_AT_EPOCH":"6641","CLASSIFICATION_TYPE":"U","EPOCH":"2021-10-29T19:54:52.441632"},{"REF_FRAME":"TEME","RCS_SIZE":"LARGE","NORAD_CAT_ID":"46138","CENTER_NAME":"EARTH","BSTAR":"0.00030899000000","DECAY_DATE":null,"PERIOD":"95.593","CLASSIFICATION_TYPE":"U","EPOCH":"2021-10-29T15:05:35.905920","REV_AT_EPOCH":"6610","SEMIMAJOR_AXIS":"6925.368","ELEMENT_SET_NO":"999","RA_OF_ASC_NODE":"263.6556","TLE_LINE2":"2 46138  53.0545 263.6556 0001709  71.3381 288.7794 15.06393524 66105","EPHEMERIS_TYPE":"0","SITE":"AFETR","COUNTRY_CODE":"US","TLE_LINE1":"1 46138U 20057X   21302.62888780  .00004323  00000-0  30899-3 0  9995","MEAN_MOTION_DOT":"0.00004323","ARG_OF_PERICENTER":"71.3381","LAUNCH_DATE":"2020-08-18","MEAN_ANOMALY":"288.7794","OBJECT_ID":"2020-057X","OBJECT_TYPE":"PAYLOAD","GP_ID":"188466915","PERIAPSIS":"546.050","MEAN_MOTION":"15.06393524","ECCENTRICITY":"0.00017090","OBJECT_NAME":"STARLINK-1590","APOAPSIS":"548.417","INCLINATION":"53.0545","TIME_SYSTEM":"UTC","MEAN_MOTION_DDOT":"0.0000000000000","FILE":"3191844","MEAN_ELEMENT_THEORY":"SGP4"},{"PERIOD":"95.592","DECAY_DATE":null,"BSTAR":"0.00015578000000","CENTER_NAME":"EARTH","NORAD_CAT_ID":"46140","RCS_SIZE":"LARGE","REF_FRAME":"TEME","ARG_OF_PERICENTER":"67.2152","MEAN_MOTION_DOT":"0.00002040","TLE_LINE1":"1 46140U 20057Z   21302.52199387  .00002040  00000-0  15578-3 0  9996","COUNTRY_CODE":"US","SITE":"AFETR","EPHEMERIS_TYPE":"0","TLE_LINE2":"2 46140  53.0537 224.1458 0001652  67.2152 292.9011 15.06404040 67914","RA_OF_ASC_NODE":"224.1458","ELEMENT_SET_NO":"999","SEMIMAJOR_AXIS":"6925.336","REV_AT_EPOCH":"6791","EPOCH":"2021-10-29T12:31:40.270368","CLASSIFICATION_TYPE":"U","MEAN_MOTION":"15.06404040","PERIAPSIS":"546.057","GP_ID":"188433915","OBJECT_TYPE":"PAYLOAD","LAUNCH_DATE":"2020-08-18","OBJECT_ID":"2020-057Z","MEAN_ANOMALY":"292.9011","FILE":"3191412","MEAN_ELEMENT_THEORY":"SGP4","MEAN_MOTION_DDOT":"0.0000000000000","TIME_SYSTEM":"UTC","INCLINATION":"53.0537","APOAPSIS":"548.345","ECCENTRICITY":"0.00016520","OBJECT_NAME":"STARLINK-1594"},{"OBJECT_NAME":"STARLINK-1596","ECCENTRICITY":"0.00016860","APOAPSIS":"548.351","INCLINATION":"53.0538","TIME_SYSTEM":"UTC","MEAN_MOTION_DDOT":"0.0000000000000","FILE":"3191844","MEAN_ELEMENT_THEORY":"SGP4","OBJECT_ID":"2020-057AA","LAUNCH_DATE":"2020-08-18","MEAN_ANOMALY":"280.0432","GP_ID":"188465914","PERIAPSIS":"546.016","OBJECT_TYPE":"PAYLOAD","MEAN_MOTION":"15.06409844","ELEMENT_SET_NO":"999","SEMIMAJOR_AXIS":"6925.318","REV_AT_EPOCH":"6670","EPOCH":"2021-10-29T21:33:03.403584","CLASSIFICATION_TYPE":"U","RA_OF_ASC_NODE":"222.4580","TLE_LINE2":"2 46141  53.0538 222.4580 0001686  80.0747 280.0432 15.06409844 66701","SITE":"AFETR","EPHEMERIS_TYPE":"0","TLE_LINE1":"1 46141U 20057AA  21302.89795606  .00002243  00000-0  16942-3 0  9994","COUNTRY_CODE":"US","MEAN_MOTION_DOT":"0.00002243","ARG_OF_PERICENTER":"80.0747","REF_FRAME":"TEME","RCS_SIZE":"LARGE","CENTER_NAME":"EARTH","NORAD_CAT_ID":"46141","BSTAR":"0.00016942000000","DECAY_DATE":null,"PERIOD":"95.592"},{"ECCENTRICITY":"0.00016580","OBJECT_NAME":"STARLINK-1597","APOAPSIS":"548.360","INCLINATION":"53.0562","TIME_SYSTEM":"UTC","MEAN_MOTION_DDOT":"0.0000000000000","MEAN_ELEMENT_THEORY":"SGP4","FILE":"3191412","LAUNCH_DATE":"2020-08-18","MEAN_ANOMALY":"289.2748","OBJECT_ID":"2020-057AB","OBJECT_TYPE":"PAYLOAD","GP_ID":"188432914","PERIAPSIS":"546.063","MEAN_MOTION":"15.06400640","EPOCH":"2021-10-29T09:15:17.631936","CLASSIFICATION_TYPE":"U","SEMIMAJOR_AXIS":"6925.347","ELEMENT_SET_NO":"999","REV_AT_EPOCH":"6606","RA_OF_ASC_NODE":"264.7520","TLE_LINE2":"2 46142  53.0562 264.7520 0001658  70.8420 289.2748 15.06400640 66061","SITE":"AFETR","EPHEMERIS_TYPE":"0","COUNTRY_CODE":"US","TLE_LINE1":"1 46142U 20057AB  21302.38562074 -.00000054  00000-0  15245-4 0  9995","ARG_OF_PERICENTER":"70.8420","MEAN_MOTION_DOT":"-0.00000054","REF_FRAME":"TEME","RCS_SIZE":"LARGE","NORAD_CAT_ID":"46142","CENTER_NAME":"EARTH","BSTAR":"0.00001524500000","DECAY_DATE":null,"PERIOD":"95.592"},{"EPHEMERIS_TYPE":"0","SITE":"AFETR","TLE_LINE2":"2 46143  53.0571 240.4890 0001381  57.5251 302.5887 15.42214017 66424","MEAN_MOTION_DOT":"0.00055044","ARG_OF_PERICENTER":"57.5251","COUNTRY_CODE":"US","TLE_LINE1":"1 46143U 20057AC  21302.55249057  .00055044  00000-0  12629-2 0  9997","SEMIMAJOR_AXIS":"6817.713","REV_AT_EPOCH":"6642","ELEMENT_SET_NO":"999","CLASSIFICATION_TYPE":"U","EPOCH":"2021-10-29T13:15:35.185248","RA_OF_ASC_NODE":"240.4890","BSTAR":"0.00126290000000","PERIOD":"93.372","DECAY_DATE":null,"REF_FRAME":"TEME","CENTER_NAME":"EARTH","NORAD_CAT_ID":"46143","RCS_SIZE":"LARGE","MEAN_MOTION_DDOT":"0.0000000000000","TIME_SYSTEM":"UTC","MEAN_ELEMENT_THEORY":"SGP4","FILE":"3191412","ECCENTRICITY":"0.00013810","OBJECT_NAME":"STARLINK-1599","INCLINATION":"53.0571","APOAPSIS":"440.520","OBJECT_ID":"2020-057AC","LAUNCH_DATE":"2020-08-18","MEAN_ANOMALY":"302.5887","MEAN_MOTION":"15.42214017","GP_ID":"188433164","PERIAPSIS":"438.637","OBJECT_TYPE":"PAYLOAD"},{"FILE":"3191412","MEAN_ELEMENT_THEORY":"SGP4","TIME_SYSTEM":"UTC","MEAN_MOTION_DDOT":"0.0000000000000","APOAPSIS":"548.428","INCLINATION":"53.0549","ECCENTRICITY":"0.00017890","OBJECT_NAME":"STARLINK-1606","OBJECT_TYPE":"PAYLOAD","GP_ID":"188434416","PERIAPSIS":"545.950","MEAN_MOTION":"15.06408026","MEAN_ANOMALY":"295.1539","LAUNCH_DATE":"2020-08-18","OBJECT_ID":"2020-057AD","COUNTRY_CODE":"US","TLE_LINE1":"1 46144U 20057AD  21302.54963074  .00001103  00000-0  92939-4 0  9990","MEAN_MOTION_DOT":"0.00001103","ARG_OF_PERICENTER":"64.9636","TLE_LINE2":"2 46144  53.0549 244.0167 0001789  64.9636 295.1539 15.06408026 54623","EPHEMERIS_TYPE":"0","SITE":"AFETR","RA_OF_ASC_NODE":"244.0167","CLASSIFICATION_TYPE":"U","EPOCH":"2021-10-29T13:11:28.095936","REV_AT_EPOCH":"5462","SEMIMAJOR_AXIS":"6925.324","ELEMENT_SET_NO":"999","DECAY_DATE":null,"PERIOD":"95.592","BSTAR":"0.00009293900000","RCS_SIZE":"LARGE","NORAD_CAT_ID":"46144","CENTER_NAME":"EARTH","REF_FRAME":"TEME"},{"INCLINATION":"53.0522","APOAPSIS":"548.291","OBJECT_NAME":"STARLINK-1608","ECCENTRICITY":"0.00015570","MEAN_ELEMENT_THEORY":"SGP4","FILE":"3191844","MEAN_MOTION_DDOT":"0.0000000000000","TIME_SYSTEM":"UTC","MEAN_MOTION":"15.06400260","OBJECT_TYPE":"PAYLOAD","PERIAPSIS":"546.134","GP_ID":"188467668","LAUNCH_DATE":"2020-08-18","OBJECT_ID":"2020-057AF","MEAN_ANOMALY":"280.1177","RA_OF_ASC_NODE":"263.8159","EPOCH":"2021-10-29T14:17:50.136288","CLASSIFICATION_TYPE":"U","REV_AT_EPOCH":"6610","SEMIMAJOR_AXIS":"6925.348","ELEMENT_SET_NO":"999","MEAN_MOTION_DOT":"0.00002941","ARG_OF_PERICENTER":"79.9988","COUNTRY_CODE":"US","TLE_LINE1":"1 46146U 20057AF  21302.59571917  .00002941  00000-0  21626-3 0  9993","EPHEMERIS_TYPE":"0","SITE":"AFETR","TLE_LINE2":"2 46146  53.0522 263.8159 0001557  79.9988 280.1177 15.06400260 66105","NORAD_CAT_ID":"46146","CENTER_NAME":"EARTH","RCS_SIZE":"LARGE","REF_FRAME":"TEME","PERIOD":"95.592","DECAY_DATE":null,"BSTAR":"0.00021626000000"},{"BSTAR":"0.00012628000000","DECAY_DATE":null,"PERIOD":"95.592","REF_FRAME":"TEME","RCS_SIZE":"LARGE","NORAD_CAT_ID":"46147","CENTER_NAME":"EARTH","TLE_LINE2":"2 46147  53.0529 264.7878 0001769  68.3269 291.7909 15.06408774 67324","EPHEMERIS_TYPE":"0","SITE":"AFETR","TLE_LINE1":"1 46147U 20057AG  21302.37823512  .00001600  00000-0  12628-3 0  9994","COUNTRY_CODE":"US","ARG_OF_PERICENTER":"68.3269","MEAN_MOTION_DOT":"0.00001600","CLASSIFICATION_TYPE":"U","EPOCH":"2021-10-29T09:04:39.514368","REV_AT_EPOCH":"6732","SEMIMAJOR_AXIS":"6925.322","ELEMENT_SET_NO":"999","RA_OF_ASC_NODE":"264.7878","LAUNCH_DATE":"2020-08-18","MEAN_ANOMALY":"291.7909","OBJECT_ID":"2020-057AG","OBJECT_TYPE":"PAYLOAD","GP_ID":"188434668","PERIAPSIS":"545.962","MEAN_MOTION":"15.06408774","TIME_SYSTEM":"UTC","MEAN_MOTION_DDOT":"0.0000000000000","FILE":"3191412","MEAN_ELEMENT_THEORY":"SGP4","ECCENTRICITY":"0.00017690","OBJECT_NAME":"STARLINK-1611","APOAPSIS":"548.412","INCLINATION":"53.0529"}];
